[{"OBJECT_NAME":"STARLINK-32364","OBJECT_ID":"2024-191B","EPOCH":"2026-03-09T06:28:34.142304","MEAN_MOTION":15.27577082,"ECCENTRICITY":1.484e-5,"INCLINATION":42.9942,"RA_OF_ASC_NODE":156.7492,"ARG_OF_PERICENTER":182.0242,"MEAN_ANOMALY":178.0609,"EPHEMERIS_TYPE":0,"CLASSIFICATION_TYPE":"U","NORAD_CAT_ID":61622,"ELEMENT_SET_NO":999,"REV_AT_EPOCH":7747,"BSTAR":-3.0011298e-5,"MEAN_MOTION_DOT":-1.087e-5,"MEAN_MOTION_DDOT":0},{"OBJECT_NAME":"FENGYUN 1C DEB","OBJECT_ID":"1999-025DCL","EPOCH":"2026-03-08T01:32:38.043744","MEAN_MOTION":14.80481308,"ECCENTRICITY":0.0218035,"INCLINATION":98.8149,"RA_OF_ASC_NODE":16.0796,"ARG_OF_PERICENTER":161.8742,"MEAN_ANOMALY":199.0399,"EPHEMERIS_TYPE":0,"CLASSIFICATION_TYPE":"U","NORAD_CAT_ID":33603,"ELEMENT_SET_NO":999,"REV_AT_EPOCH":119,"BSTAR":0.0001936534,"MEAN_MOTION_DOT":2.149e-5,"MEAN_MOTION_DDOT":0}]
